*******************************************************************************
Ephemeris / WWW_USER Tue Mar 11 05:37:05 2025 Pasadena, USA      / Horizons    
*******************************************************************************
Target body name: (2018 RB1)                      {source: JPL#5}
Center body name: Earth (399)                     {source: DE441}
Center-site name: Gemini South Obs., Cerro Pachon
*******************************************************************************
Start time      : A.D. 2018-Sep-18 22:45:00.0000 UT      
Stop  time      : A.D. 2018-Sep-19 10:28:00.0000 UT      
Step-size       : 1 minutes
*******************************************************************************
Target pole/equ : undefined
Target radii    : undefined                                                    
Center geodetic : 289.2634, -30.2406227, 2.71233  {E-lon(deg),Lat(deg),Alt(km)}
Center cylindric: 289.2634,5517.21435,-3194.81213 {E-lon(deg),Dxy(km),Dz(km)}
Center pole/equ : ITRF93                          {East-longitude positive}
Center radii    : 6378.137, 6378.137, 6356.752 km {Equator_a, b, pole_c}       
Target primary  : Sun
Vis. interferer : MOON (R_eq= 1737.400) km        {source: DE441}
Rel. light bend : Sun                             {source: DE441}
Rel. lght bnd GM: 1.3271E+11 km^3/s^2                                          
Small-body perts: Yes                             {source: SB441-N16}
Atmos refraction: NO (AIRLESS)
RA format       : HMS
Time format     : CAL 
Calendar mode   : Mixed Julian/Gregorian
RTS-only print  : NO       
EOP file        : eop.250310.p250606                                           
EOP coverage    : DATA-BASED 1962-JAN-20 TO 2025-MAR-10. PREDICTS-> 2025-JUN-05
Units conversion: 1 au= 149597870.700 km, c= 299792.458 km/s, 1 day= 86400.0 s 
Table cut-offs 1: Elevation (-90.0deg=NO ),Airmass (>38.000=NO), Daylight (YES)
Table cut-offs 2: Solar elongation (  0.0,180.0=NO ),Local Hour Angle( 0.0=NO )
Table cut-offs 3: RA/DEC angular rate (     0.0=NO )                           
*******************************************************************************
Initial IAU76/J2000 heliocentric ecliptic osculating elements (au, days, deg.):
  EPOCH=  2458368.5 ! 2018-Sep-07.00 (TDB)         Residual RMS= .299          
   EC= .2816093255492492   QR= .7991213126369837   TP= 2458438.7854507864      
   OM= 166.9631715555783   W=  267.8210074013559   IN= 5.127543488636634       
  Equivalent ICRF heliocentric cartesian coordinates (au, au/d):
   X= 9.883258176612897E-01  Y=-2.654573099408967E-01  Z=-1.095366816313374E-01
  VX= 1.112505236628486E-04 VY= 1.667631342697191E-02 VZ= 5.559084906068471E-03
Asteroid physical parameters (km, seconds, rotational period in hours):        
   GM= n.a.                RAD= n.a.               ROTPER= n.a.                
   H= 27.9                 G= .150                 B-V= n.a.                   
                           ALBEDO= n.a.            STYP= n.a.                  
*******************************************************************************
 Date__(UT)__HR:MN     R.A._________(ICRF)_________DEC
******************************************************
$$SOE
 2018-Sep-18 22:45 Cm  11 10 22.807720 -18 33 56.14390
 2018-Sep-18 22:46 Cm  11 10 22.636974 -18 33 53.48992
 2018-Sep-18 22:47 Cm  11 10 22.466549 -18 33 50.83666
 2018-Sep-18 22:48 Cm  11 10 22.296446 -18 33 48.18413
 2018-Sep-18 22:49 Cm  11 10 22.126665 -18 33 45.53232
 2018-Sep-18 22:50 Cm  11 10 21.957204 -18 33 42.88124
 2018-Sep-18 22:51 Cm  11 10 21.788064 -18 33 40.23091
 2018-Sep-18 22:52 Cm  11 10 21.619244 -18 33 37.58131
 2018-Sep-18 22:53 Cm  11 10 21.450745 -18 33 34.93247
 2018-Sep-18 22:54 Cm  11 10 21.282564 -18 33 32.28438
 2018-Sep-18 22:55 Cm  11 10 21.114703 -18 33 29.63706
 2018-Sep-18 22:56 Cm  11 10 20.947161 -18 33 26.99050
 2018-Sep-18 22:57 Cm  11 10 20.779936 -18 33 24.34471
 2018-Sep-18 22:58 Cm  11 10 20.613030 -18 33 21.69969
 2018-Sep-18 22:59 Cm  11 10 20.446442 -18 33 19.05547
 2018-Sep-18 23:00 Cs  11 10 20.280170 -18 33 16.41202
 2018-Sep-18 23:01 Nm  11 10 20.114215 -18 33 13.76938
 2018-Sep-18 23:02 Nm  11 10 19.948577 -18 33 11.12753
 2018-Sep-18 23:03 Nm  11 10 19.783254 -18 33 08.48648
 2018-Sep-18 23:04 Nm  11 10 19.618247 -18 33 05.84625
 2018-Sep-18 23:05 Nm  11 10 19.453556 -18 33 03.20683
 2018-Sep-18 23:06 Nm  11 10 19.289178 -18 33 00.56823
 2018-Sep-18 23:07 Nm  11 10 19.125115 -18 32 57.93045
 2018-Sep-18 23:08 Nm  11 10 18.961366 -18 32 55.29351
 2018-Sep-18 23:09 Nm  11 10 18.797930 -18 32 52.65741
 2018-Sep-18 23:10 Nm  11 10 18.634806 -18 32 50.02214
 2018-Sep-18 23:11 Nm  11 10 18.471995 -18 32 47.38772
 2018-Sep-18 23:12 Nm  11 10 18.309496 -18 32 44.75416
 2018-Sep-18 23:13 Nm  11 10 18.147309 -18 32 42.12145
 2018-Sep-18 23:14 Nm  11 10 17.985432 -18 32 39.48960
 2018-Sep-18 23:15 Nm  11 10 17.823866 -18 32 36.85863
 2018-Sep-18 23:16 Nm  11 10 17.662609 -18 32 34.22852
 2018-Sep-18 23:17 Nm  11 10 17.501663 -18 32 31.59930
 2018-Sep-18 23:18 Nm  11 10 17.341025 -18 32 28.97096
 2018-Sep-18 23:19 Nm  11 10 17.180696 -18 32 26.34351
 2018-Sep-18 23:20 Nm  11 10 17.020674 -18 32 23.71695
 2018-Sep-18 23:21 Nm  11 10 16.860960 -18 32 21.09129
 2018-Sep-18 23:22 Nm  11 10 16.701554 -18 32 18.46654
 2018-Sep-18 23:23 Nm  11 10 16.542453 -18 32 15.84270
 2018-Sep-18 23:24 Nm  11 10 16.383658 -18 32 13.21977
 2018-Sep-18 23:25 Nm  11 10 16.225169 -18 32 10.59776
 2018-Sep-18 23:26 Nm  11 10 16.066985 -18 32 07.97668
 2018-Sep-18 23:27 Nm  11 10 15.909105 -18 32 05.35653
 2018-Sep-18 23:28 Nm  11 10 15.751528 -18 32 02.73732
 2018-Sep-18 23:29 Am  11 10 15.594255 -18 32 00.11904
 2018-Sep-18 23:30 Am  11 10 15.437284 -18 31 57.50171
 2018-Sep-18 23:31 Am  11 10 15.280616 -18 31 54.88534
 2018-Sep-18 23:32 Am  11 10 15.124248 -18 31 52.26992
 2018-Sep-18 23:33 Am  11 10 14.968182 -18 31 49.65546
 2018-Sep-18 23:34 Am  11 10 14.812416 -18 31 47.04196
 2018-Sep-18 23:35 Am  11 10 14.656950 -18 31 44.42944
 2018-Sep-18 23:36 Am  11 10 14.501783 -18 31 41.81790
 2018-Sep-18 23:37 Am  11 10 14.346915 -18 31 39.20733
 2018-Sep-18 23:38 Am  11 10 14.192344 -18 31 36.59775
 2018-Sep-18 23:39 Am  11 10 14.038071 -18 31 33.98917
 2018-Sep-18 23:40 Am  11 10 13.884094 -18 31 31.38158
 2018-Sep-18 23:41 Am  11 10 13.730414 -18 31 28.77499
 2018-Sep-18 23:42 Am  11 10 13.577029 -18 31 26.16941
 2018-Sep-18 23:43 Am  11 10 13.423940 -18 31 23.56483
 2018-Sep-18 23:44 Am  11 10 13.271144 -18 31 20.96128
 2018-Sep-18 23:45 Am  11 10 13.118642 -18 31 18.35874
 2018-Sep-18 23:46 Am  11 10 12.966433 -18 31 15.75724
 2018-Sep-18 23:47 Am  11 10 12.814516 -18 31 13.15676
 2018-Sep-18 23:48 Am  11 10 12.662891 -18 31 10.55732
 2018-Sep-18 23:49 Am  11 10 12.511558 -18 31 07.95892
 2018-Sep-18 23:50 Am  11 10 12.360514 -18 31 05.36156
 2018-Sep-18 23:51 Am  11 10 12.209760 -18 31 02.76526
 2018-Sep-18 23:52 Am  11 10 12.059296 -18 31 00.17001
 2018-Sep-18 23:53 Am  11 10 11.909120 -18 30 57.57581
 2018-Sep-18 23:54 Am  11 10 11.759231 -18 30 54.98269
 2018-Sep-18 23:55 Am  11 10 11.609630 -18 30 52.39063
 2018-Sep-18 23:56 Am  11 10 11.460314 -18 30 49.79965
 2018-Sep-18 23:57  m  11 10 11.311285 -18 30 47.20975
 2018-Sep-18 23:58  m  11 10 11.162541 -18 30 44.62093
 2018-Sep-18 23:59  m  11 10 11.014080 -18 30 42.03320
 2018-Sep-19 00:00  m  11 10 10.865904 -18 30 39.44656
 2018-Sep-19 00:01  m  11 10 10.718010 -18 30 36.86102
 2018-Sep-19 00:02  m  11 10 10.570398 -18 30 34.27658
 2018-Sep-19 00:03  m  11 10 10.423068 -18 30 31.69325
 2018-Sep-19 00:04  m  11 10 10.276019 -18 30 29.11103
 2018-Sep-19 00:05  m  11 10 10.129249 -18 30 26.52993
 2018-Sep-19 00:06  m  11 10 09.982759 -18 30 23.94994
 2018-Sep-19 00:07  m  11 10 09.836548 -18 30 21.37109
 2018-Sep-19 00:08  m  11 10 09.690614 -18 30 18.79336
 2018-Sep-19 00:09  m  11 10 09.544957 -18 30 16.21677
 2018-Sep-19 00:10  m  11 10 09.399576 -18 30 13.64132
 2018-Sep-19 00:11  m  11 10 09.254471 -18 30 11.06701
 2018-Sep-19 00:12  m  11 10 09.109641 -18 30 08.49385
 2018-Sep-19 00:13  m  11 10 08.965085 -18 30 05.92184
 2018-Sep-19 00:14  m  11 10 08.820802 -18 30 03.35099
 2018-Sep-19 00:15  m  11 10 08.676791 -18 30 00.78130
 2018-Sep-19 00:16  m  11 10 08.533053 -18 29 58.21278
 2018-Sep-19 00:17  m  11 10 08.389585 -18 29 55.64542
 2018-Sep-19 00:18  m  11 10 08.246387 -18 29 53.07925
 2018-Sep-19 00:19  m  11 10 08.103459 -18 29 50.51425
 2018-Sep-19 00:20  m  11 10 07.960799 -18 29 47.95044
 2018-Sep-19 00:21  m  11 10 07.818407 -18 29 45.38781
 2018-Sep-19 00:22  m  11 10 07.676282 -18 29 42.82638
 2018-Sep-19 00:23  m  11 10 07.534423 -18 29 40.26614
 2018-Sep-19 00:24  m  11 10 07.392830 -18 29 37.70711
 2018-Sep-19 00:25  m  11 10 07.251501 -18 29 35.14928
 2018-Sep-19 00:26  m  11 10 07.110435 -18 29 32.59266
 2018-Sep-19 00:27  m  11 10 06.969633 -18 29 30.03725
 2018-Sep-19 00:28  m  11 10 06.829093 -18 29 27.48306
 2018-Sep-19 00:29  m  11 10 06.688814 -18 29 24.93010
 2018-Sep-19 00:30  m  11 10 06.548795 -18 29 22.37836
 2018-Sep-19 00:31  m  11 10 06.409036 -18 29 19.82785
 2018-Sep-19 00:32  m  11 10 06.269535 -18 29 17.27858
 2018-Sep-19 00:33  m  11 10 06.130293 -18 29 14.73055
 2018-Sep-19 00:34  m  11 10 05.991308 -18 29 12.18376
 2018-Sep-19 00:35  m  11 10 05.852578 -18 29 09.63821
 2018-Sep-19 00:36  m  11 10 05.714104 -18 29 07.09392
 2018-Sep-19 00:37  m  11 10 05.575885 -18 29 04.55089
 2018-Sep-19 00:38  m  11 10 05.437919 -18 29 02.00911
 2018-Sep-19 00:39  m  11 10 05.300206 -18 28 59.46860
 2018-Sep-19 00:40  m  11 10 05.162744 -18 28 56.92936
 2018-Sep-19 00:41  m  11 10 05.025534 -18 28 54.39139
 2018-Sep-19 00:42  m  11 10 04.888573 -18 28 51.85469
 2018-Sep-19 00:43  m  11 10 04.751862 -18 28 49.31928
 2018-Sep-19 00:44  m  11 10 04.615399 -18 28 46.78514
 2018-Sep-19 00:45  m  11 10 04.479184 -18 28 44.25230
 2018-Sep-19 00:46  m  11 10 04.343215 -18 28 41.72075
 2018-Sep-19 00:47  m  11 10 04.207491 -18 28 39.19049
